{
  "norad_id": 66061,
  "name": "STARLINK-35566",
  "history": [
    {
      "epoch": "2026-03-28T21:17:56.043744Z",
      "apogee_km": 476.0690361137458,
      "perigee_km": 474.303620024436,
      "latitude_deg": -7.1891391994089855e-06,
      "longitude_deg": 10.108128337923564,
      "height_km": 476.19774573934194,
      "semi_major_axis_km": 6853.323328069091,
      "eccentricity": 0.0001288,
      "inclination_deg": 53.1576,
      "raan_deg": 155.8931,
      "arg_perigee_deg": 97.3947,
      "mean_anomaly_deg": 262.72,
      "mean_motion_rev_day": 15.30209626
    },
    {
      "epoch": "2026-03-28T21:17:56.044608Z",
      "apogee_km": 476.06889904728087,
      "perigee_km": 474.30375709090185,
      "latitude_deg": -5.371310862843422e-06,
      "longitude_deg": 10.108126082556184,
      "height_km": 476.1977281004747,
      "semi_major_axis_km": 6853.323328069091,
      "eccentricity": 0.00012878,
      "inclination_deg": 53.1576,
      "raan_deg": 155.8931,
      "arg_perigee_deg": 97.3947,
      "mean_anomaly_deg": 262.72,
      "mean_motion_rev_day": 15.30209626
    },
    {
      "epoch": "2026-03-29T08:16:18.439104Z",
      "apogee_km": 476.05617087882183,
      "perigee_km": 474.3368065731702,
      "latitude_deg": 5.9148438852360915e-05,
      "longitude_deg": -157.06087658491674,
      "height_km": 476.0522593286978,
      "semi_major_axis_km": 6853.333488725996,
      "eccentricity": 0.00012544,
      "inclination_deg": 53.1587,
      "raan_deg": 153.768,
      "arg_perigee_deg": 87.1875,
      "mean_anomaly_deg": 272.927,
      "mean_motion_rev_day": 15.30206223
    },
    {
      "epoch": "2026-03-30T10:55:12.979776Z",
      "apogee_km": 476.14351732610794,
      "perigee_km": 474.2706354569118,
      "latitude_deg": 2.1667540888134535e-05,
      "longitude_deg": 156.95882921846174,
      "height_km": 475.97525339463743,
      "semi_major_axis_km": 6853.34407639151,
      "eccentricity": 0.00013664,
      "inclination_deg": 53.1578,
      "raan_deg": 148.6094,
      "arg_perigee_deg": 82.0482,
      "mean_anomaly_deg": 278.0674,
      "mean_motion_rev_day": 15.30202677
    },
    {
      "epoch": "2026-03-30T20:19:32.058912Z",
      "apogee_km": 476.1928064174208,
      "perigee_km": 474.15463180955703,
      "latitude_deg": -2.5191240808861954e-06,
      "longitude_deg": 13.674153313892578,
      "height_km": 476.0995857193009,
      "semi_major_axis_km": 6853.310719113489,
      "eccentricity": 0.0001487,
      "inclination_deg": 53.1574,
      "raan_deg": 146.7905,
      "arg_perigee_deg": 91.595,
      "mean_anomaly_deg": 268.5221,
      "mean_motion_rev_day": 15.30213849
    },
    {
      "epoch": "2026-03-31T13:34:07.344192Z",
      "apogee_km": 476.003072280314,
      "perigee_km": 474.3952796134363,
      "latitude_deg": 5.295480126766894e-06,
      "longitude_deg": 110.98238772406256,
      "height_km": 475.7916114740498,
      "semi_major_axis_km": 6853.336175946874,
      "eccentricity": 0.0001173,
      "inclination_deg": 53.1577,
      "raan_deg": 143.4539,
      "arg_perigee_deg": 67.6532,
      "mean_anomaly_deg": 292.4593,
      "mean_motion_rev_day": 15.30205323
    },
    {
      "epoch": "2026-04-01T09:56:48.681312Z",
      "apogee_km": 475.8174444960214,
      "perigee_km": 474.5550623527406,
      "latitude_deg": 6.222575130281659e-05,
      "longitude_deg": 160.52839241508934,
      "height_km": 476.0814096219874,
      "semi_major_axis_km": 6853.323253424381,
      "eccentricity": 9.21e-05,
      "inclination_deg": 53.1574,
      "raan_deg": 139.509,
      "arg_perigee_deg": 89.7182,
      "mean_anomaly_deg": 270.3925,
      "mean_motion_rev_day": 15.30209651
    },
    {
      "epoch": "2026-04-02T12:35:42.064224Z",
      "apogee_km": 476.0796753484083,
      "perigee_km": 474.4345866212061,
      "latitude_deg": -1.5910000994517984e-05,
      "longitude_deg": 114.55430536149244,
      "height_km": 476.2562918273226,
      "semi_major_axis_km": 6853.394130984807,
      "eccentricity": 0.00012002,
      "inclination_deg": 53.1577,
      "raan_deg": 134.3518,
      "arg_perigee_deg": 97.0693,
      "mean_anomaly_deg": 263.0444,
      "mean_motion_rev_day": 15.30185913
    },
    {
      "epoch": "2026-04-03T12:06:30.607488Z",
      "apogee_km": 476.0123696869332,
      "perigee_km": 474.4694001899179,
      "latitude_deg": 1.7478377138436895e-05,
      "longitude_deg": 116.3386024489778,
      "height_km": 475.8585572787817,
      "semi_major_axis_km": 6853.377884938425,
      "eccentricity": 0.00011257,
      "inclination_deg": 53.1575,
      "raan_deg": 129.804,
      "arg_perigee_deg": 68.6848,
      "mean_anomaly_deg": 291.4273,
      "mean_motion_rev_day": 15.30191354
    },
    {
      "epoch": "2026-04-04T11:37:19.289856Z",
      "apogee_km": 476.1353621269009,
      "perigee_km": 474.2653604944935,
      "latitude_deg": 2.7207371655213646e-05,
      "longitude_deg": 118.11599992888588,
      "height_km": 475.8353390807566,
      "semi_major_axis_km": 6853.337361310697,
      "eccentricity": 0.00013643,
      "inclination_deg": 53.1582,
      "raan_deg": 125.2499,
      "arg_perigee_deg": 73.6726,
      "mean_anomaly_deg": 286.4425,
      "mean_motion_rev_day": 15.30204926
    },
    {
      "epoch": "2026-04-05T11:08:07.287936Z",
      "apogee_km": 476.09355879082614,
      "perigee_km": 474.35842434862025,
      "latitude_deg": -3.6222930659668485e-06,
      "longitude_deg": 119.89902537183826,
      "height_km": 475.90600463344646,
      "semi_major_axis_km": 6853.362991569723,
      "eccentricity": 0.00012659,
      "inclination_deg": 53.1578,
      "raan_deg": 120.6986,
      "arg_perigee_deg": 75.4544,
      "mean_anomaly_deg": 284.6597,
      "mean_motion_rev_day": 15.30196342
    },
    {
      "epoch": "2026-04-05T18:58:23.280672Z",
      "apogee_km": 476.21784609648057,
      "perigee_km": 474.1961096230116,
      "latitude_deg": 2.2407098107614058e-05,
      "longitude_deg": 0.4908217683931159,
      "height_km": 476.1079554303877,
      "semi_major_axis_km": 6853.343977859746,
      "eccentricity": 0.0001475,
      "inclination_deg": 53.1583,
      "raan_deg": 119.1789,
      "arg_perigee_deg": 90.1911,
      "mean_anomaly_deg": 269.9259,
      "mean_motion_rev_day": 15.3020271
    },
    {
      "epoch": "2026-04-05T18:58:23.281536Z",
      "apogee_km": 476.2180516968001,
      "perigee_km": 474.19590402269205,
      "latitude_deg": 1.9638924053787034e-05,
      "longitude_deg": 0.49081609600561826,
      "height_km": 476.1079561160602,
      "semi_major_axis_km": 6853.343977859746,
      "eccentricity": 0.00014753,
      "inclination_deg": 53.1583,
      "raan_deg": 119.1789,
      "arg_perigee_deg": 90.1911,
      "mean_anomaly_deg": 269.9259,
      "mean_motion_rev_day": 15.3020271
    },
    {
      "epoch": "2026-04-07T17:59:59.042688Z",
      "apogee_km": 476.4513968327865,
      "perigee_km": 474.00337507412496,
      "latitude_deg": 7.1552454509445985e-06,
      "longitude_deg": 4.059083090117037,
      "height_km": 475.98118307707875,
      "semi_major_axis_km": 6853.364385953456,
      "eccentricity": 0.0001786,
      "inclination_deg": 53.1585,
      "raan_deg": 110.0775,
      "arg_perigee_deg": 83.2716,
      "mean_anomaly_deg": 276.8488,
      "mean_motion_rev_day": 15.30195875
    },
    {
      "epoch": "2026-04-08T09:40:30.776736Z",
      "apogee_km": 475.84748745567686,
      "perigee_km": 474.5767394630584,
      "latitude_deg": 1.2327496597895844e-05,
      "longitude_deg": 125.25099060831684,
      "height_km": 476.08316463300037,
      "semi_major_axis_km": 6853.349113459367,
      "eccentricity": 9.271e-05,
      "inclination_deg": 53.1596,
      "raan_deg": 107.0454,
      "arg_perigee_deg": 87.5245,
      "mean_anomaly_deg": 272.5862,
      "mean_motion_rev_day": 15.3020099
    },
    {
      "epoch": "2026-04-09T07:37:15.458592Z",
      "apogee_km": 475.80293669953153,
      "perigee_km": 474.62594212332715,
      "latitude_deg": 1.1147546154294438e-05,
      "longitude_deg": 150.91583284297428,
      "height_km": 476.15443960559577,
      "semi_major_axis_km": 6853.351439411429,
      "eccentricity": 8.587e-05,
      "inclination_deg": 53.1582,
      "raan_deg": 102.7977,
      "arg_perigee_deg": 94.0502,
      "mean_anomaly_deg": 266.0597,
      "mean_motion_rev_day": 15.30200211
    },
    {
      "epoch": "2026-04-10T10:16:09.552576Z",
      "apogee_km": 475.4892232674674,
      "perigee_km": 474.8683128588809,
      "latitude_deg": -2.1928135599758226e-05,
      "longitude_deg": 104.94120435824523,
      "height_km": 476.2267090138691,
      "semi_major_axis_km": 6853.315768063174,
      "eccentricity": 4.53e-05,
      "inclination_deg": 53.1575,
      "raan_deg": 97.6429,
      "arg_perigee_deg": 118.6785,
      "mean_anomaly_deg": 241.4261,
      "mean_motion_rev_day": 15.30212158
    },
    {
      "epoch": "2026-04-11T16:03:11.977632Z",
      "apogee_km": 476.22642821057707,
      "perigee_km": 474.32118000703576,
      "latitude_deg": -3.353222199122064e-06,
      "longitude_deg": 11.192525690836172,
      "height_km": 475.9631786441303,
      "semi_major_axis_km": 6853.410804108807,
      "eccentricity": 0.000139,
      "inclination_deg": 53.1564,
      "raan_deg": 91.8775,
      "arg_perigee_deg": 77.3764,
      "mean_anomaly_deg": 282.7392,
      "mean_motion_rev_day": 15.30180329
    },
    {
      "epoch": "2026-04-13T05:40:29.076096Z",
      "apogee_km": 476.1382014088158,
      "perigee_km": 474.26216888775343,
      "latitude_deg": 2.894763546051343e-06,
      "longitude_deg": 158.04452919659676,
      "height_km": 476.01954457815,
      "semi_major_axis_km": 6853.337185148284,
      "eccentricity": 0.00013687,
      "inclination_deg": 53.1576,
      "raan_deg": 84.5958,
      "arg_perigee_deg": 85.2098,
      "mean_anomaly_deg": 274.9059,
      "mean_motion_rev_day": 15.30204985
    }
  ]
}